CCSDS_OMM_VERS = 2.0
CREATION_DATE  = 
ORIGINATOR     = 

OBJECT_NAME    = SL-3 R/B
OBJECT_ID      = 1982-079B
CENTER_NAME    = EARTH
REF_FRAME      = TEME
TIME_SYSTEM    = UTC
MEAN_ELEMENT_THEORY = SGP/SGP4

EPOCH          = 2026-03-23T12:17:54.918816
MEAN_MOTION    = 15.24987301
ECCENTRICITY   = .0025451
INCLINATION    = 81.1486
RA_OF_ASC_NODE = 176.7571
ARG_OF_PERICENTER = 119.2317
MEAN_ANOMALY   = 241.1467

EPHEMERIS_TYPE = 0
CLASSIFICATION_TYPE = U
NORAD_CAT_ID   = 13403
ELEMENT_SET_NO = 999
REV_AT_EPOCH   = 37980
BSTAR          = .23854E-3
MEAN_MOTION_DOT = .603E-4
MEAN_MOTION_DDOT = 0

CCSDS_OMM_VERS = 2.0
CREATION_DATE  = 
ORIGINATOR     = 

OBJECT_NAME    = SL-14 R/B
OBJECT_ID      = 1982-092B
CENTER_NAME    = EARTH
REF_FRAME      = TEME
TIME_SYSTEM    = UTC
MEAN_ELEMENT_THEORY = SGP/SGP4

EPOCH          = 2026-03-23T08:44:49.208352
MEAN_MOTION    = 14.86678479
ECCENTRICITY   = .0018819
INCLINATION    = 82.5669
RA_OF_ASC_NODE = 128.6079
ARG_OF_PERICENTER = 254.6003
MEAN_ANOMALY   = 115.6953

EPHEMERIS_TYPE = 0
CLASSIFICATION_TYPE = U
NORAD_CAT_ID   = 13553
ELEMENT_SET_NO = 999
REV_AT_EPOCH   = 33096
BSTAR          = .47133E-4
MEAN_MOTION_DOT = .444E-5
MEAN_MOTION_DDOT = 0

CCSDS_OMM_VERS = 2.0
CREATION_DATE  = 
ORIGINATOR     = 

OBJECT_NAME    = SL-3 R/B
OBJECT_ID      = 1983-010B
CENTER_NAME    = EARTH
REF_FRAME      = TEME
TIME_SYSTEM    = UTC
MEAN_ELEMENT_THEORY = SGP/SGP4

EPOCH          = 2026-03-23T11:26:58.184448
MEAN_MOTION    = 15.46824283
ECCENTRICITY   = .0016537
INCLINATION    = 81.1052
RA_OF_ASC_NODE = 345.3405
ARG_OF_PERICENTER = 5.0434
MEAN_ANOMALY   = 355.0974

EPHEMERIS_TYPE = 0
CLASSIFICATION_TYPE = U
NORAD_CAT_ID   = 13819
ELEMENT_SET_NO = 999
REV_AT_EPOCH   = 36007
BSTAR          = .33589E-3
MEAN_MOTION_DOT = .16984E-3
MEAN_MOTION_DDOT = 0

CCSDS_OMM_VERS = 2.0
CREATION_DATE  = 
ORIGINATOR     = 

OBJECT_NAME    = SL-3 R/B
OBJECT_ID      = 1983-075B
CENTER_NAME    = EARTH
REF_FRAME      = TEME
TIME_SYSTEM    = UTC
MEAN_ELEMENT_THEORY = SGP/SGP4

EPOCH          = 2026-03-23T11:23:57.761376
MEAN_MOTION    = 15.38736369
ECCENTRICITY   = .0021632
INCLINATION    = 97.6145
RA_OF_ASC_NODE = 87.5778
ARG_OF_PERICENTER = 175.0362
MEAN_ANOMALY   = 185.1101

EPHEMERIS_TYPE = 0
CLASSIFICATION_TYPE = U
NORAD_CAT_ID   = 14208
ELEMENT_SET_NO = 999
REV_AT_EPOCH   = 33227
BSTAR          = .32359E-3
MEAN_MOTION_DOT = .12404E-3
MEAN_MOTION_DDOT = 0

CCSDS_OMM_VERS = 2.0
CREATION_DATE  = 
ORIGINATOR     = 

OBJECT_NAME    = COSMOS 1536
OBJECT_ID      = 1984-013A
CENTER_NAME    = EARTH
REF_FRAME      = TEME
TIME_SYSTEM    = UTC
MEAN_ELEMENT_THEORY = SGP/SGP4

EPOCH          = 2026-03-23T07:29:22.115328
MEAN_MOTION    = 15.24002720
ECCENTRICITY   = .0012814
INCLINATION    = 82.5418
RA_OF_ASC_NODE = 94.3036
ARG_OF_PERICENTER = 229.0949
MEAN_ANOMALY   = 130.9179

EPHEMERIS_TYPE = 0
CLASSIFICATION_TYPE = U
NORAD_CAT_ID   = 14699
ELEMENT_SET_NO = 999
REV_AT_EPOCH   = 27469
BSTAR          = .34086E-3
MEAN_MOTION_DOT = .8306E-4
MEAN_MOTION_DDOT = 0

CCSDS_OMM_VERS = 2.0
CREATION_DATE  = 
ORIGINATOR     = 

OBJECT_NAME    = SL-14 R/B
OBJECT_ID      = 1984-027B
CENTER_NAME    = EARTH
REF_FRAME      = TEME
TIME_SYSTEM    = UTC
MEAN_ELEMENT_THEORY = SGP/SGP4

EPOCH          = 2026-03-23T10:19:04.279296
MEAN_MOTION    = 14.85990264
ECCENTRICITY   = .001654
INCLINATION    = 82.5404
RA_OF_ASC_NODE = 232.1240
ARG_OF_PERICENTER = 289.6389
MEAN_ANOMALY   = 70.3042

EPHEMERIS_TYPE = 0
CLASSIFICATION_TYPE = U
NORAD_CAT_ID   = 14820
ELEMENT_SET_NO = 999
REV_AT_EPOCH   = 24967
BSTAR          = .59318E-4
MEAN_MOTION_DOT = .543E-5
MEAN_MOTION_DDOT = 0

CCSDS_OMM_VERS = 2.0
CREATION_DATE  = 
ORIGINATOR     = 

OBJECT_NAME    = SL-8 R/B
OBJECT_ID      = 1985-006B
CENTER_NAME    = EARTH
REF_FRAME      = TEME
TIME_SYSTEM    = UTC
MEAN_ELEMENT_THEORY = SGP/SGP4

EPOCH          = 2026-03-23T10:17:37.142304
MEAN_MOTION    = 14.37793157
ECCENTRICITY   = .0017886
INCLINATION    = 74.0441
RA_OF_ASC_NODE = 235.8646
ARG_OF_PERICENTER = 149.9194
MEAN_ANOMALY   = 241.3509

EPHEMERIS_TYPE = 0
CLASSIFICATION_TYPE = U
NORAD_CAT_ID   = 15483
ELEMENT_SET_NO = 999
REV_AT_EPOCH   = 15600
BSTAR          = .12423E-3
MEAN_MOTION_DOT = .349E-5
MEAN_MOTION_DDOT = 0

CCSDS_OMM_VERS = 2.0
CREATION_DATE  = 
ORIGINATOR     = 

OBJECT_NAME    = SL-12 R/B(2)
OBJECT_ID      = 1985-042D
CENTER_NAME    = EARTH
REF_FRAME      = TEME
TIME_SYSTEM    = UTC
MEAN_ELEMENT_THEORY = SGP/SGP4

EPOCH          = 2026-03-23T08:23:42.502272
MEAN_MOTION    = 14.21986022
ECCENTRICITY   = .0032866
INCLINATION    = 71.1075
RA_OF_ASC_NODE = 58.8660
ARG_OF_PERICENTER = 105.5028
MEAN_ANOMALY   = 359.4506

EPHEMERIS_TYPE = 0
CLASSIFICATION_TYPE = U
NORAD_CAT_ID   = 15772
ELEMENT_SET_NO = 999
REV_AT_EPOCH   = 11633
BSTAR          = .87287E-4
MEAN_MOTION_DOT = .146E-5
MEAN_MOTION_DDOT = 0

CCSDS_OMM_VERS = 2.0
CREATION_DATE  = 
ORIGINATOR     = 

OBJECT_NAME    = SL-14 R/B
OBJECT_ID      = 1985-069B
CENTER_NAME    = EARTH
REF_FRAME      = TEME
TIME_SYSTEM    = UTC
MEAN_ELEMENT_THEORY = SGP/SGP4

EPOCH          = 2026-03-23T13:05:01.053312
MEAN_MOTION    = 14.86447698
ECCENTRICITY   = .0019691
INCLINATION    = 82.5303
RA_OF_ASC_NODE = 11.9075
ARG_OF_PERICENTER = 142.6063
MEAN_ANOMALY   = 217.6528

EPHEMERIS_TYPE = 0
CLASSIFICATION_TYPE = U
NORAD_CAT_ID   = 15945
ELEMENT_SET_NO = 999
REV_AT_EPOCH   = 17489
BSTAR          = .55336E-4
MEAN_MOTION_DOT = .515E-5
MEAN_MOTION_DDOT = 0

CCSDS_OMM_VERS = 2.0
CREATION_DATE  = 
ORIGINATOR     = 

OBJECT_NAME    = SL-16 R/B
OBJECT_ID      = 1985-097B
CENTER_NAME    = EARTH
REF_FRAME      = TEME
TIME_SYSTEM    = UTC
MEAN_ELEMENT_THEORY = SGP/SGP4

EPOCH          = 2026-03-23T13:33:28.062432
MEAN_MOTION    = 14.16602377
ECCENTRICITY   = .0009549
INCLINATION    = 71.0011
RA_OF_ASC_NODE = 111.3423
ARG_OF_PERICENTER = 243.3089
MEAN_ANOMALY   = 283.1483

EPHEMERIS_TYPE = 0
CLASSIFICATION_TYPE = U
NORAD_CAT_ID   = 16182
ELEMENT_SET_NO = 999
REV_AT_EPOCH   = 8919
BSTAR          = .12444E-3
MEAN_MOTION_DOT = .2E-5
MEAN_MOTION_DDOT = 0

CCSDS_OMM_VERS = 2.0
CREATION_DATE  = 
ORIGINATOR     = 

OBJECT_NAME    = SL-14 R/B
OBJECT_ID      = 1986-006B
CENTER_NAME    = EARTH
REF_FRAME      = TEME
TIME_SYSTEM    = UTC
MEAN_ELEMENT_THEORY = SGP/SGP4

EPOCH          = 2026-03-23T09:13:02.163648
MEAN_MOTION    = 14.86834824
ECCENTRICITY   = .0075422
INCLINATION    = 82.5241
RA_OF_ASC_NODE = 246.8448
ARG_OF_PERICENTER = 226.5535
MEAN_ANOMALY   = 132.9392

EPHEMERIS_TYPE = 0
CLASSIFICATION_TYPE = U
NORAD_CAT_ID   = 16496
ELEMENT_SET_NO = 999
REV_AT_EPOCH   = 15124
BSTAR          = .86921E-4
MEAN_MOTION_DOT = .842E-5
MEAN_MOTION_DDOT = 0

CCSDS_OMM_VERS = 2.0
CREATION_DATE  = 
ORIGINATOR     = 

OBJECT_NAME    = COSMOS 1743
OBJECT_ID      = 1986-034A
CENTER_NAME    = EARTH
REF_FRAME      = TEME
TIME_SYSTEM    = UTC
MEAN_ELEMENT_THEORY = SGP/SGP4

EPOCH          = 2026-03-23T07:30:50.009184
MEAN_MOTION    = 15.59625856
ECCENTRICITY   = .0003198
INCLINATION    = 82.5304
RA_OF_ASC_NODE = 59.5201
ARG_OF_PERICENTER = 189.9395
MEAN_ANOMALY   = 170.1799

EPHEMERIS_TYPE = 0
CLASSIFICATION_TYPE = U
NORAD_CAT_ID   = 16719
ELEMENT_SET_NO = 999
REV_AT_EPOCH   = 18237
BSTAR          = .51709E-3
MEAN_MOTION_DOT = .41343E-3
MEAN_MOTION_DDOT = 0

